     2.100          NAVIGATION                              RINEX VERSION / TYPE
fic2rin                                 07/10/2015 00:35:12 PGM / RUN BY / DATE
                                                            END OF HEADER
12 15  7  9 16  0  0.0  .308461952955D-03  .329691829393D-11  .000000000000D+00
     .430000000000D+02 -.574062500000D+02  .394194991232D-08 -.233610393339D+01
    -.292621552944D-05  .557994854171D-02  .828504562378D-05  .515365414810D+04
     .403200000000D+06  .987201929092D-07  .154940226902D+01 -.121071934700D-06
     .989685537244D+00  .234031250000D+03  .632552461995D+00 -.778210987040D-08
    -.285726187357D-10  .100000000000D+01  .185200000000D+04  .000000000000D+00
     .240000000000D+01  .000000000000D+00 -.121071934700D-07  .430000000000D+02
     .396006000000D+06  .400000000000D+01
13 15  7  9 16  0  0.0 -.130648259073D-03 -.341060513165D-11  .000000000000D+00
     .510000000000D+02  .829687500000D+02  .426732060817D-08 -.102234327864D+01
     .421330332756D-05  .494040222839D-02  .806711614132D-05  .515368523979D+04
     .403200000000D+06 -.540167093277D-07 -.480819106446D+00 -.819563865662D-07
     .973895438791D+00  .234031250000D+03  .210116501864D+01 -.808390815579D-08
     .288226291496D-09  .100000000000D+01  .185200000000D+04  .000000000000D+00
     .240000000000D+01  .000000000000D+00 -.111758708954D-07  .510000000000D+02
     .396006000000D+06  .400000000000D+01
14 15  7  9 16  0  0.0  .501661561430D-04 -.272848410532D-11  .000000000000D+00
     .370000000000D+02  .779062500000D+02  .437625371710D-08  .924617603589D+00
     .400841236115D-05  .834097550251D-02  .774301588535D-05  .515362328720D+04
     .403200000000D+06 -.147148966789D-06 -.515697848611D+00  .353902578354D-07
     .966365351784D+00  .230250000000D+03 -.197454892931D+01 -.819748431527D-08
     .136434254463D-09  .100000000000D+01  .185200000000D+04  .000000000000D+00
     .240000000000D+01  .000000000000D+00 -.931322574615D-08  .370000000000D+02
     .396006000000D+06  .400000000000D+01
15 15  7  9 16  0  0.0 -.259525608271D-03 -.216004991671D-11  .000000000000D+00
     .770000000000D+02  .714375000000D+02  .514307137242D-08  .262325223950D+00
     .386312603951D-05  .719087186735D-02  .832602381706D-05  .515367289925D+04
     .403200000000D+06  .782310962677D-07 -.641199501584D+00  .689178705215D-07
     .932963570249D+00  .203750000000D+03  .392207669961D+00 -.847428155927D-08
     .182864759908D-09  .100000000000D+01  .185200000000D+04  .000000000000D+00
     .240000000000D+01  .000000000000D+00 -.107102096081D-07  .770000000000D+02
     .396006000000D+06  .400000000000D+01
16 15  7  9 16  0  0.0 -.110367778689D-03  .409272615798D-11  .000000000000D+00
     .720000000000D+02 -.397500000000D+02  .396052211450D-08  .190797149972D+01
    -.193342566490D-05  .813867978286D-02  .924989581108D-05  .515358575630D+04
     .403200000000D+06 -.126659870148D-06  .156810001517D+01  .184401869774D-06
     .990226398538D+00  .219656250000D+03  .319928126565D+00 -.780032491484D-08
    -.120004998690D-09  .100000000000D+01  .185200000000D+04  .000000000000D+00
     .240000000000D+01  .000000000000D+00 -.102445483208D-07  .720000000000D+02
     .396006000000D+06  .400000000000D+01
17 15  7  9 16  0  0.0 -.179394148290D-03 -.159161572810D-11  .000000000000D+00
     .940000000000D+02 -.503125000000D+01  .440232623170D-08  .925996931992D+00
    -.173225998878D-06  .101266050478D-01  .860355794430D-05  .515378923607D+04
     .403200000000D+06 -.987201929092D-07  .259432017448D+01  .856816768646D-07
     .973113728516D+00  .224187500000D+03 -.200789679500D+01 -.817176895841D-08
     .238224208709D-09  .100000000000D+01  .185200000000D+04  .000000000000D+00
     .240000000000D+01  .000000000000D+00 -.107102096081D-07  .940000000000D+02
     .396006000000D+06  .400000000000D+01
18 15  7  9 16  0  0.0  .415872316808D-03  .306954461848D-11  .000000000000D+00
     .610000000000D+02 -.183750000000D+02  .503485257896D-08  .248597988768D+01
    -.996515154839D-06  .163541538641D-01  .990368425846D-05  .515361742973D+04
     .403200000000D+06  .147148966789D-06 -.166108487305D+01 -.176951289177D-06
     .924691516062D+00  .165812500000D+03 -.195008761215D+01 -.802426281418D-08
    -.186793494985D-09  .100000000000D+01  .185200000000D+04  .000000000000D+00
     .240000000000D+01  .000000000000D+00 -.111758708954D-07  .610000000000D+02
     .396006000000D+06  .400000000000D+01
19 15  7  9 16  0  0.0 -.515481922776D-03 -.102318153949D-11  .000000000000D+00
     .960000000000D+02  .553125000000D+01  .456519015849D-08  .125574772545D+00
     .385567545891D-06  .115732107079D-01  .739097595215D-05  .515374337578D+04
     .403200000000D+06  .856816768646D-07  .264377585078D+01  .171363353729D-06
     .970210485664D+00  .238343750000D+03  .576513733334D+00 -.826355849609D-08
     .220723479733D-09  .100000000000D+01  .185200000000D+04  .000000000000D+00
     .240000000000D+01  .000000000000D+00 -.153668224812D-07  .960000000000D+02
     .396006000000D+06  .400000000000D+01
20 15  7  9 16  0  0.0  .336930621415D-03  .329691829393D-11  .000000000000D+00
     .480000000000D+02 -.226875000000D+02  .514771442297D-08  .319794390983D+00
    -.979751348495D-06  .477523729205D-02  .982359051704D-05  .515360698891D+04
     .403200000000D+06 -.229105353355D-06 -.171337970907D+01  .279396772385D-07
     .925898460050D+00  .174062500000D+03  .117834618255D+01 -.832856120372D-08
    -.251081887140D-09  .100000000000D+01  .185200000000D+04  .000000000000D+00
     .240000000000D+01  .000000000000D+00 -.838190317154D-08  .480000000000D+02
     .396006000000D+06  .400000000000D+01
21 15  7  9 16  0  0.0 -.462301541120D-03 -.318323145621D-11  .000000000000D+00
     .640000000000D+02 -.338125000000D+02  .519450208615D-08 -.273677423187D+01
    -.179186463356D-05  .224936980521D-01  .561214983463D-05  .515379309273D+04
     .403200000000D+06  .344589352608D-06 -.270430630556D+01 -.763684511185D-07
     .934396107908D+00  .252718750000D+03 -.189512961130D+01 -.813819613139D-08
     .282154610015D-10  .100000000000D+01  .185200000000D+04  .000000000000D+00
     .240000000000D+01  .000000000000D+00 -.116415321827D-07  .640000000000D+02
     .396006000000D+06  .400000000000D+01
22 15  7  9 16  0  0.0  .369394198060D-03  .386535248253D-11  .000000000000D+00
     .790000000000D+02 -.117187500000D+02  .522021744301D-08  .202144135369D+01
    -.681728124619D-06  .803968252148D-02  .972859561443D-05  .515368961334D+04
     .403200000000D+06 -.335276126862D-07 -.165999354640D+01 -.162050127983D-06
     .922508162031D+00  .171593750000D+03 -.204129498799D+01 -.830856037060D-08
    -.197508227010D-09  .100000000000D+01  .185200000000D+04  .000000000000D+00
     .340000000000D+01  .000000000000D+00 -.176951289177D-07  .790000000000D+02
     .396006000000D+06  .400000000000D+01
23 15  7  9 16  0  0.0 -.119938980788D-03 -.238742359215D-11  .000000000000D+00
     .510000000000D+02  .906875000000D+02  .484055877156D-08 -.209672820023D+00
     .487826764584D-05  .104031111114D-01  .748038291931D-05  .515359527779D+04
     .403200000000D+06  .169500708580D-06 -.588344309416D+00  .108033418655D-06
     .948164690568D+00  .229437500000D+03 -.265777838476D+01 -.846070956537D-08
     .292869342041D-09  .100000000000D+01  .185200000000D+04  .000000000000D+00
     .240000000000D+01  .000000000000D+00 -.200234353542D-07  .510000000000D+02
     .396006000000D+06  .400000000000D+01
24 15  7  9 16  0  0.0 -.103423371911D-05 -.682121026330D-12  .000000000000D+00
     .160000000000D+02  .144062500000D+02  .501020869530D-08 -.950232507718D+00
     .780448317528D-06  .325042835902D-02  .367872416973D-05  .515366600609D+04
     .403200000000D+06  .111758708954D-06  .438067356109D+00  .558793544769D-08
     .953266352581D+00  .303687500000D+03  .350917971656D+00 -.851106880589D-08
     .321441960776D-11  .100000000000D+01  .185200000000D+04  .000000000000D+00
     .240000000000D+01  .000000000000D+00  .232830643654D-08  .160000000000D+02
     .396006000000D+06  .400000000000D+01
25 15  7  9 16  0  0.0 -.110529363155D-04 -.443378667114D-11  .000000000000D+00
     .420000000000D+02 -.517187500000D+02  .412445751450D-08 -.300083507792D+01
    -.276416540146D-05  .466430152301D-02  .822916626930D-05  .515366231728D+04
     .403200000000D+06 -.391155481339D-07  .150225854602D+01 -.139698386192D-06
     .978165148070D+00  .229281250000D+03  .752381206852D+00 -.787425656582D-08
    -.978612191697D-10  .100000000000D+01  .185200000000D+04  .000000000000D+00
     .240000000000D+01  .000000000000D+00  .558793544769D-08  .420000000000D+02
     .396006000000D+06  .400000000000D+01
26 15  7  9 16  0  0.0 -.653415918350D-05 -.488853402203D-11  .000000000000D+00
     .140000000000D+02 -.443750000000D+02  .462340686917D-08  .145726726414D+01
    -.228919088840D-05  .310116214678D-03  .843405723572D-05  .515360148239D+04
     .403200000000D+06 -.353902578354D-07  .149892653359D+01  .167638063431D-07
     .960272877300D+00  .217656250000D+03  .125908165138D+01 -.810890919719D-08
    -.678599694973D-10  .100000000000D+01  .185200000000D+04  .000000000000D+00
     .240000000000D+01  .000000000000D+00  .745058059692D-08  .140000000000D+02
     .396006000000D+06  .400000000000D+01
27 15  7  9 16  0  0.0  .305846333504D-05  .272848410532D-11  .000000000000D+00
     .680000000000D+02  .581250000000D+01  .452447417680D-08  .959524837547D+00
     .484287738800D-06  .258578592911D-02  .785291194916D-05  .515369444466D+04
     .403200000000D+06  .745058059692D-08  .254629591378D+01  .558793544769D-07
     .967994739701D+00  .228312500000D+03  .283189139233D+00 -.810319467344D-08
     .216080429189D-09  .100000000000D+01  .185200000000D+04  .000000000000D+00
     .240000000000D+01  .000000000000D+00  .139698386192D-08  .680000000000D+02
     .396006000000D+06  .400000000000D+01
